{
    "links": {
        "self": "http://www.neowsapp.com/rest/v1/neo/3578913?api_key=iIulBulltgU6a56xZRHN4H3l9WmuAYTsLGpBGhQ2"
    },
    "id": "3578913",
    "neo_reference_id": "3578913",
    "name": "(2011 SC25)",
    "designation": "2011 SC25",
    "nasa_jpl_url": "http://ssd.jpl.nasa.gov/sbdb.cgi?sstr=3578913",
    "absolute_magnitude_h": 25.2,
    "estimated_diameter": {
        "kilometers": {
            "estimated_diameter_min": 0.0242412481,
            "estimated_diameter_max": 0.0542050786
        },
        "meters": {
            "estimated_diameter_min": 24.2412481101,
            "estimated_diameter_max": 54.2050786336
        },
        "miles": {
            "estimated_diameter_min": 0.0150628086,
            "estimated_diameter_max": 0.0336814639
        },
        "feet": {
            "estimated_diameter_min": 79.5316564495,
            "estimated_diameter_max": 177.8381901842
        }
    },
    "is_potentially_hazardous_asteroid": false,
    "close_approach_data": [
        {
            "close_approach_date": "2011-10-04",
            "close_approach_date_full": "2011-Oct-04 20:32",
            "epoch_date_close_approach": 1317760320000,
            "relative_velocity": {
                "kilometers_per_second": "8.6756504982",
                "kilometers_per_hour": "31232.3417936511",
                "miles_per_hour": "19406.562599505"
            },
            "miss_distance": {
                "astronomical": "0.09580048",
                "lunar": "37.26638672",
                "kilometers": "14331547.7529776",
                "miles": "8905210.83358688"
            },
            "orbiting_body": "Earth"
        },
        {
            "close_approach_date": "2013-04-07",
            "close_approach_date_full": "2013-Apr-07 09:16",
            "epoch_date_close_approach": 1365326160000,
            "relative_velocity": {
                "kilometers_per_second": "11.7929294833",
                "kilometers_per_hour": "42454.546139903",
                "miles_per_hour": "26379.6039612081"
            },
            "miss_distance": {
                "astronomical": "0.0759875475",
                "lunar": "29.5591559775",
                "kilometers": "11367575.252523825",
                "miles": "7063483.723825785"
            },
            "orbiting_body": "Earth"
        }
    ],
    "orbital_data": {
        "orbit_id": "5",
        "orbit_determination_date": "2017-04-06 08:52:47",
        "first_observation_date": "2011-09-20",
        "last_observation_date": "2011-09-24",
        "data_arc_in_days": 4,
        "observations_used": 7,
        "orbit_uncertainty": "9",
        "minimum_orbit_intersection": ".0438021",
        "jupiter_tisserand_invariant": "5.620",
        "epoch_osculation": "2455825.5",
        "eccentricity": ".3206148434830591",
        "semi_major_axis": "1.091206725787405",
        "inclination": "11.1404600473491",
        "ascending_node_longitude": "178.549022318359",
        "orbital_period": "416.3503921948543",
        "perihelion_distance": ".7413496521914149",
        "perihelion_argument": "288.8439695790851",
        "aphelion_distance": "1.441063799383395",
        "perihelion_time": "2455912.923357335416",
        "mean_anomaly": "284.4088411329741",
        "mean_motion": ".8646563249339225",
        "equinox": "J2000",
        "orbit_class": {
            "orbit_class_type": "APO",
            "orbit_class_description": "Near-Earth asteroid orbits which cross the Earth’s orbit similar to that of 1862 Apollo",
            "orbit_class_range": "a (semi-major axis) > 1.0 AU; q (perihelion) < 1.017 AU"
        }
    },
    "is_sentry_object": false
}